CUTE-1 (CO-55)          
1 27844U 03031E   23353.61160675  .00000520  00000+0  25012-3 0  9999
2 27844  98.6787 358.1877 0008942 313.1011  46.9418 14.23002618 62135
CUBESAT XI-IV (CO-57)   
1 27848U 03031J   23353.54765718  .00000436  00000+0  21509-3 0  9997
2 27848  98.6819 358.4628 0009079 330.0921  29.9737 14.22481958 61908
CUBESAT XI-V            
1 28895U 05043F   23354.32558618  .00002899  00000+0  53014-3 0  9992
2 28895  98.1762 125.3597 0015741 201.6816 158.3723 14.66575377968318
CUTE-1.7+APD II (CO-65) 
1 32785U 08021C   23353.55551262  .00005286  00000+0  49758-3 0  9999
2 32785  97.7320 316.0319 0010691 200.7705 159.3082 14.94231810848557
AAUSAT-II               
1 32788U 08021F   23353.49447095  .00019557  00000+0  12305-2 0  9996
2 32788  97.5801 329.6303 0009146  79.2517 280.9741 15.09207064851006
SEEDS II (CO-66)        
1 32791U 08021J   23353.89094584  .00007649  00000+0  62262-3 0  9992
2 32791  97.6823 321.8484 0010109 139.4288 220.7691 14.99770512849547
SWISSCUBE               
1 35932U 09051B   23353.62182528  .00001587  00000+0  35335-3 0  9999
2 35932  98.4943 228.1623 0007737 147.0903 213.0778 14.58331091756273
BEESAT-1                
1 35933U 09051C   23353.59979368  .00001366  00000+0  30681-3 0  9996
2 35933  98.4870 229.2690 0005819 156.6251 203.5213 14.58161879756385
ITUPSAT1                
1 35935U 09051E   23353.62589149  .00001267  00000+0  29138-3 0  9991
2 35935  98.4969 229.1672 0007963 165.3566 194.7864 14.57170189755995
TISAT 1                 
1 36799U 10035E   23353.17315736  .00007450  00000+0  62050-3 0  9993
2 36799  98.1092 230.0779 0011653  76.4591 283.7928 14.98904347729917
M-CUBED & EXP-1 PRIME   
1 37855U 11061F   23354.13761756  .00049433  00000+0  10594-2 0  9993
2 37855 101.6943  62.9846 0090601 186.0212 173.9938 15.40257321665518
AEROCUBE 4.5A           
1 38767U 12048K   23353.82369322  .00010544  00000+0  67204-3 0  9992
2 38767  64.6614 171.3705 0103499  86.1278 275.1665 15.04764877233281
AEROCUBE 4.5B           
1 38768U 12048L   23353.55654832  .00018633  00000+0  92391-3 0  9998
2 38768  64.6614 108.5675 0082864  75.6607 285.3697 15.14809508233988
STRAND-1                
1 39090U 13009E   23354.50058986  .00000529  00000+0  19718-3 0  9996
2 39090  98.3795 182.7374 0009967  71.0599 289.1667 14.35815428566476
BRITE-AUSTRIA           
1 39091U 13009F   23354.09998582  .00000317  00000+0  12467-3 0  9995
2 39091  98.3831 181.6016 0011521  78.3631 281.8847 14.35631972566430
BEESAT-3                
1 39135U 13015F   23354.46694245  .00932979  41049-3  20816-2 0  9997
2 39135  64.8371  57.1655 0011501 326.0658  33.9770 15.97486137591396
BEESAT-2                
1 39136U 13015G   23353.57616103  .00217917  00000+0  16533-2 0  9993
2 39136  64.8553  78.9919 0015951 279.4851  80.4498 15.71281445590910
NEE-01 PEGASO           
1 39151U 13018B   23354.29478967  .00003790  00000+0  45975-3 0  9992
2 39151  98.0218 105.1045 0014441 265.7687  94.1877 14.84111568575282
ESTCUBE 1               
1 39161U 13021C   23354.12667837  .00002411  00000+0  36324-3 0  9992
2 39161  97.8529  61.0287 0010462  91.8440 268.3968 14.75265487570570
POPACS 1                
1 39268U 13055D   23351.73921893  .00040045  00000+0  80706-3 0  9994
2 39268  80.9875 358.4003 0457038 313.5668  42.8419 14.79231735534922
POPACS 2                
1 39269U 13055E   23352.57643175  .00025438  00000+0  62172-3 0  9998
2 39269  81.0064  75.4449 0580562 153.9699 209.1971 14.49427809529228
POPACS 3                
1 39270U 13055F   23351.38132252  .00007728  00000+0  22219-3 0  9997
2 39270  81.0114 121.7771 0646551 284.1880  68.8337 14.32081284506753
ZACUBE-1 (TSHEPISOSAT)  
1 39417U 13066B   23354.43879140  .00006834  00000+0  75180-3 0  9997
2 39417  97.7120 310.0499 0054354  35.6837 324.7993 14.86821623544855
WNISAT-1                
1 39423U 13066H   23354.45558658  .00001703  00000+0  33707-3 0  9993
2 39423  97.6788 198.2940 0170685 212.9522 146.0948 14.54668553534518
TRITON-1                
1 39427U 13066M   23354.46955592  .00005351  00000+0  78208-3 0  9994
2 39427  97.8408 273.4883 0104314 300.7300  58.3665 14.72433738539949
DELFI-N3XT              
1 39428U 13066N   23354.34776933  .00009720  00000+0  13242-2 0  9992
2 39428  97.8378 272.8758 0105214 311.0056  48.2091 14.75091622539736
GOMX-1                  
1 39430U 13066Q   23354.44275059  .00002552  00000+0  43760-3 0  9994
2 39430  97.7557 234.5899 0144306 103.3209 258.4131 14.62900534536751
CUBEBUG-2 (LO-74)       
1 39440U 13066AA  23354.40431555  .00004465  00000+0  55435-3 0  9993
2 39440  97.7949 297.4828 0073800 139.8203 220.8499 14.81164080542908
NEE-02 KRYSAOR          
1 39441U 13066AB  23354.38824647  .00002789  00000+0  36916-3 0  9999
2 39441  97.8052 293.9110 0076746 158.8420 201.5995 14.78661770542512
FUNCUBE-1 (AO-73)       
1 39444U 13066AE  23354.43143990  .00008949  00000+0  93275-3 0  9998
2 39444  97.6975 312.8057 0051815  19.4230 340.8947 14.89006207543929
UWE-3                   
1 39446U 13066AG  23353.86104299  .00004494  00000+0  52868-3 0  9999
2 39446  97.7603 303.0335 0065032  91.0110 269.8557 14.83802713542533
BRITE-CA1 (TORONTO)     
1 40020U 14033L   23354.33670616  .00001464  00000+0  24742-3 0  9992
2 40020  97.8506 133.2109 0083237 306.8211  52.5380 14.68623964508573
DUCHIFAT-1              
1 40021U 14033M   23353.90704899  .00011025  00000+0  84769-3 0  9995
2 40021  98.0760 324.5247 0013635   1.9666 358.1609 15.01828145517024
NANOSATC-BR1            
1 40024U 14033Q   23353.82866544  .00009596  00000+0  79408-3 0  9999
2 40024  98.0511 314.2422 0010435  32.0034 328.1820 14.99079425516713
QB50P1                  
1 40025U 14033R   23353.86524399  .00007185  00000+0  63866-3 0  9996
2 40025  98.0196 304.4572 0011988  43.5701 316.6464 14.96375579516398
QB50P2                  
1 40032U 14033Y   23353.83099764  .00006315  00000+0  57620-3 0  9999
2 40032  97.9875 297.2199 0011676  41.9766 318.2347 14.95402033516213
PERSEUS-M2              
1 40037U 14033AD  23353.76728560  .00002504  00000+0  26941-3 0  9997
2 40037  97.9176 279.2021 0015123  71.6321 288.6539 14.89335713515466
PERSEUS-M1              
1 40039U 14033AF  23354.36597350  .00002627  00000+0  28440-3 0  9999
2 40039  97.9005 276.3465 0014951  69.2305 291.0513 14.89049325515429
POLYITAN-1              
1 40042U 14033AJ  23353.85482565  .00009209  00000+0  78363-3 0  9999
2 40042  98.0319 306.9553 0013832  32.9139 327.2941 14.97974350516310
TIGRISAT                
1 40043U 14033AK  23353.47305368  .00003593  00000+0  49670-3 0  9992
2 40043  97.6747 159.4175 0056817 170.4930 189.7371 14.77563508510767
AEROCUBE 6A             
1 40045U 14033AM  23354.46878040  .00006918  00000+0  88185-3 0  9994
2 40045  97.6574 170.5466 0053362 149.4679 210.9659 14.80793070511414
AEROCUBE 6B             
1 40046U 14033AN  23353.45842653  .00007342  00000+0  91889-3 0  9991
2 40046  97.6530 168.1476 0051887 148.9625 211.4672 14.81589418511068
UKUBE-1                 
1 40074U 14037F   23354.21724814  .00007364  00000+0  75731-3 0  9991
2 40074  98.3391 268.6479 0003148 324.5092  35.5914 14.90645081511948
BRITE-PL2 (HEWELIUSZ)   
1 40119U 14049B   23353.28549129  .00003203  00000+0  35774-3 0  9995
2 40119  97.8831  89.0203 0015226 237.0734 122.9018 14.87605439505670
GRIFEX                  
1 40379U 15003D   23354.48745546  .00180445  00000+0  14537-2 0  9995
2 40379  99.0840 339.9420 0042572 343.7570  16.2318 15.69135627492274
CP10 (EXOCUBE)          
1 40380U 15003E   23354.39246510  .00075871  00000+0  13360-2 0  9993
2 40380  99.0975 325.2310 0074129  27.2540 333.2564 15.47098302491363
EXACTVIEW 9             
1 40936U 15052G   23350.72138749  .00002637  00000+0  25861-3 0  9991
2 40936   6.0023 221.5589 0010087 356.1628   3.8422 14.79505348444326
AEROCUBE 5C             
1 40965U 15058B   23353.93305408  .00003294  00000+0  34296-3 0  9995
2 40965  64.7699 194.1196 0175614   5.6070 354.6946 14.80880191230327
AEROCUBE 7              
1 40966U 15058C   23353.93909310  .00004036  00000+0  40620-3 0  9991
2 40966  64.7683 189.2819 0172048   5.3177 354.9704 14.82207297230395
GALASSIA                
1 41170U 15077E   23343.13624618  .00570238  00000+0  16153-2 0  9991
2 41170  14.9813 308.5244 0005515 185.4524 174.5748 15.90738573443322
VELOX-II                
1 41171U 15077F   23344.56993208  .00027080  00000+0  66285-3 0  9998
2 41171  14.9906  84.7882 0004476 180.1790 179.8533 15.38470068442355
HORYU-4                 
1 41340U 16012D   23353.53778047  .00011517  00000+0  65727-3 0  9993
2 41340  31.0042  68.1899 0010229 302.9577  57.0078 15.11470522430756
E-ST@R-II               
1 41459U 16025D   23354.43414473  .00078849  00000+0  13561-2 0  9997
2 41459  98.1572 216.5979 0073531 162.0988 198.2876 15.47788730421513
RAVAN                   
1 41849U 16067B   23354.40923472  .00014141  00000+0  88502-3 0  9990
2 41849  98.0510 157.3377 0014035 279.9362  80.0281 15.09442318388820
CELTEE 1                
1 41850U 16067C   23353.40652281  .00006451  00000+0  47404-3 0  9999
2 41850  98.0814 149.2229 0001590  79.0168 281.1235 15.03800332388236
OPTICUBE 04             
1 41851U 16067D   23353.40018799  .00003481  00000+0  27706-3 0  9993
2 41851  98.0465 146.3006 0013747 300.7502  59.2367 15.01030279388102
AEROCUBE 8D             
1 41852U 16067E   23354.37565938  .00008160  00000+0  58622-3 0  9993
2 41852  98.0879 149.5977 0005457   1.6192 358.5049 15.04553490388330
AEROCUBE 8C             
1 41853U 16067F   23354.38087037  .00008707  00000+0  62657-3 0  9994
2 41853  98.0683 148.6471 0007945 286.9392  73.0961 15.04456871388323
PROMETHEUS 2-1          
1 41854U 16067G   23353.39563714  .00016076  00000+0  98297-3 0  9993
2 41854  98.0852 152.4591 0014600 313.7510  46.2508 15.10254527388392
